{"type": "FeatureCollection", "features": [ {"type": "Feature", "properties": {"norad_id": 67040, "name": "STARLINK-35786", "group": "last-30-days", "lat": 0.12330285662280821, "lon": -80.85570460383528, "alt_km": 368.9859178222632, "timestamp": "2025-12-26T07:29:17.196060+00:00", "meta": {"OBJECT_NAME": "STARLINK-35786", "OBJECT_ID": "2025-294L", "EPOCH": "2025-12-25T22:00:01.999584", "MEAN_MOTION": 15.68237307, "ECCENTRICITY": 0.00014411, "INCLINATION": 42.9998, "RA_OF_ASC_NODE": 101.6483, "ARG_OF_PERICENTER": 288.2521, "MEAN_ANOMALY": 178.2052, "EPHEMERIS_TYPE": 0, "CLASSIFICATION_TYPE": "U", "NORAD_CAT_ID": 67040, "ELEMENT_SET_NO": 999, "REV_AT_EPOCH": 222, "BSTAR": -0.019443549, "MEAN_MOTION_DOT": -0.01975831, "MEAN_MOTION_DDOT": 0}, "tle": {"line1": "1 67040U 25294L   25359.91668981 -.01975831  00000+0 -19444-1 0  9999", "line2": "2 67040  42.9998 101.6483 0001441 288.2521 178.2052 15.68237307  2224"}}, "geometry": {"type": "Point", "coordinates": [-80.85570460383528, 0.12330285662280821]}}, {"type": "Feature", "properties": {"norad_id": 67041, "name": "STARLINK-35765", "group": "last-30-days", "lat": -2.600372143643968, "lon": -77.9404795363186, "alt_km": 369.13557004696577, "timestamp": "2025-12-26T07:29:17.196070+00:00", "meta": {"OBJECT_NAME": "STARLINK-35765", "OBJECT_ID": "2025-294M", "EPOCH": "2025-12-25T22:00:01.999584", "MEAN_MOTION": 15.68225963, "ECCENTRICITY": 0.00014672, "INCLINATION": 42.9993, "RA_OF_ASC_NODE": 101.6375, "ARG_OF_PERICENTER": 281.2066, "MEAN_ANOMALY": 189.2674, "EPHEMERIS_TYPE": 0, "CLASSIFICATION_TYPE": "U", "NORAD_CAT_ID": 67041, "ELEMENT_SET_NO": 999, "REV_AT_EPOCH": 222, "BSTAR": -0.019493291, "MEAN_MOTION_DOT": -0.01979484, "MEAN_MOTION_DDOT": 0}, "tle": {"line1": "1 67041U 25294M   25359.91668981 -.01979484  00000+0 -19493-1 0  9992", "line2": "2 67041  42.9993 101.6375 0001467 281.2066 189.2674 15.68225963  2222"}}, "geometry": {"type": "Point", "coordinates": [-77.9404795363186, -2.600372143643968]}}, {"type": "Feature", "properties": {"norad_id": 67042, "name": "STARLINK-35773", "group": "last-30-days", "lat": -4.004609854182887, "lon": -76.43072130993087, "alt_km": 369.50334792014837, "timestamp": "2025-12-26T07:29:17.196080+00:00", "meta": {"OBJECT_NAME": "STARLINK-35773", "OBJECT_ID": "2025-294N", "EPOCH": "2025-12-25T22:00:01.999584", "MEAN_MOTION": 15.68210552, "ECCENTRICITY": 0.00015971, "INCLINATION": 42.9995, "RA_OF_ASC_NODE": 101.6322, "ARG_OF_PERICENTER": 288.9542, "MEAN_ANOMALY": 183.6021, "EPHEMERIS_TYPE": 0, "CLASSIFICATION_TYPE": "U", "NORAD_CAT_ID": 67042, "ELEMENT_SET_NO": 999, "REV_AT_EPOCH": 242, "BSTAR": -0.019432896, "MEAN_MOTION_DOT": -0.01973069, "MEAN_MOTION_DDOT": 0}, "tle": {"line1": "1 67042U 25294N   25359.91668981 -.01973069  00000+0 -19433-1 0  9990", "line2": "2 67042  42.9995 101.6322 0001597 288.9542 183.6021 15.68210552  2428"}}, "geometry": {"type": "Point", "coordinates": [-76.43072130993087, -4.004609854182887]}}, {"type": "Feature", "properties": {"norad_id": 67043, "name": "STARLINK-35901", "group": "last-30-days", "lat": -5.402185772684857, "lon": -74.91945207177514, "alt_km": 369.6036802970966, "timestamp": "2025-12-26T07:29:17.196091+00:00", "meta": {"OBJECT_NAME": "STARLINK-35901", "OBJECT_ID": "2025-294P", "EPOCH": "2025-12-25T22:00:01.999584", "MEAN_MOTION": 15.68206392, "ECCENTRICITY": 0.00015021, "INCLINATION": 42.9994, "RA_OF_ASC_NODE": 101.6274, "ARG_OF_PERICENTER": 287.5154, "MEAN_ANOMALY": 187.1085, "EPHEMERIS_TYPE": 0, "CLASSIFICATION_TYPE": "U", "NORAD_CAT_ID": 67043, "ELEMENT_SET_NO": 999, "REV_AT_EPOCH": 242, "BSTAR": -0.019502158, "MEAN_MOTION_DOT": -0.01978888, "MEAN_MOTION_DDOT": 0}, "tle": {"line1": "1 67043U 25294P   25359.91668981 -.01978888  00000+0 -19502-1 0  9992", "line2": "2 67043  42.9994 101.6274 0001502 287.5154 187.1085 15.68206392  2420"}}, "geometry": {"type": "Point", "coordinates": [-74.91945207177514, -5.402185772684857]}}, {"type": "Feature", "properties": {"norad_id": 67044, "name": "STARLINK-35884", "group": "last-30-days", "lat": -6.774829349107518, "lon": -73.4247937955178, "alt_km": 369.7339720149803, "timestamp": "2025-12-26T07:29:17.196103+00:00", "meta": {"OBJECT_NAME": "STARLINK-35884", "OBJECT_ID": "2025-294Q", "EPOCH": "2025-12-25T22:00:01.999584", "MEAN_MOTION": 15.68198436, "ECCENTRICITY": 0.00015035, "INCLINATION": 42.9998, "RA_OF_ASC_NODE": 101.6223, "ARG_OF_PERICENTER": 287.1577, "MEAN_ANOMALY": 189.5043, "EPHEMERIS_TYPE": 0, "CLASSIFICATION_TYPE": "U", "NORAD_CAT_ID": 67044, "ELEMENT_SET_NO": 999, "REV_AT_EPOCH": 242, "BSTAR": -0.019499298, "MEAN_MOTION_DOT": -0.01978057, "MEAN_MOTION_DDOT": 0}, "tle": {"line1": "1 67044U 25294Q   25359.91668981 -.01978057  00000+0 -19499-1 0  9996", "line2": "2 67044  42.9998 101.6223 0001503 287.1577 189.5043 15.68198436  2424"}}, "geometry": {"type": "Point", "coordinates": [-73.4247937955178, -6.774829349107518]}}, {"type": "Feature", "properties": {"norad_id": 67045, "name": "STARLINK-35891", "group": "last-30-days", "lat": -8.267338911198706, "lon": -71.78405223546577, "alt_km": 369.9236132971455, "timestamp": "2025-12-26T07:29:17.196113+00:00", "meta": {"OBJECT_NAME": "STARLINK-35891", "OBJECT_ID": "2025-294R", "EPOCH": "2025-12-25T22:00:01.999584", "MEAN_MOTION": 15.68173366, "ECCENTRICITY": 0.00014082, "INCLINATION": 42.9999, "RA_OF_ASC_NODE": 101.6166, "ARG_OF_PERICENTER": 287.5097, "MEAN_ANOMALY": 191.398, "EPHEMERIS_TYPE": 0, "CLASSIFICATION_TYPE": "U", "NORAD_CAT_ID": 67045, "ELEMENT_SET_NO": 999, "REV_AT_EPOCH": 234, "BSTAR": -0.019500164, "MEAN_MOTION_DOT": -0.01976248, "MEAN_MOTION_DDOT": 0}, "tle": {"line1": "1 67045U 25294R   25359.91668981 -.01976248  00000+0 -19500-1 0  9990", "line2": "2 67045  42.9999 101.6166 0001408 287.5097 191.3980 15.68173366  2344"}}, "geometry": {"type": "Point", "coordinates": [-71.78405223546577, -8.267338911198706]}}, {"type": "Feature", "properties": {"norad_id": 67046, "name": "STARLINK-35721", "group": "last-30-days", "lat": -9.681191886374023, "lon": -70.21114395359089, "alt_km": 370.0322593996534, "timestamp": "2025-12-26T07:29:17.196125+00:00", "meta": {"OBJECT_NAME": "STARLINK-35721", "OBJECT_ID": "2025-294S", "EPOCH": "2025-12-25T22:00:01.999584", "MEAN_MOTION": 15.68160983, "ECCENTRICITY": 0.00012925, "INCLINATION": 42.9997, "RA_OF_ASC_NODE": 101.6113, "ARG_OF_PERICENTER": 285.7075, "MEAN_ANOMALY": 195.3239, "EPHEMERIS_TYPE": 0, "CLASSIFICATION_TYPE": "U", "NORAD_CAT_ID": 67046, "ELEMENT_SET_NO": 999, "REV_AT_EPOCH": 242, "BSTAR": -0.019545653, "MEAN_MOTION_DOT": -0.01979324, "MEAN_MOTION_DDOT": 0}, "tle": {"line1": "1 67046U 25294S   25359.91668981 -.01979324  00000+0 -19546-1 0  9999", "line2": "2 67046  42.9997 101.6113 0001292 285.7075 195.3239 15.68160983  2423"}}, "geometry": {"type": "Point", "coordinates": [-70.21114395359089, -9.681191886374023]}}, {"type": "Feature", "properties": {"norad_id": 67047, "name": "STARLINK-35779", "group": "last-30-days", "lat": -11.155130044956506, "lon": -68.54824235514835, "alt_km": 370.2489282577226, "timestamp": "2025-12-26T07:29:17.196136+00:00", "meta": {"OBJECT_NAME": "STARLINK-35779", "OBJECT_ID": "2025-294T", "EPOCH": "2025-12-25T22:00:01.999584", "MEAN_MOTION": 15.68141644, "ECCENTRICITY": 0.00014938, "INCLINATION": 42.9999, "RA_OF_ASC_NODE": 101.606, "ARG_OF_PERICENTER": 287.238, "MEAN_ANOMALY": 196.0296, "EPHEMERIS_TYPE": 0, "CLASSIFICATION_TYPE": "U", "NORAD_CAT_ID": 67047, "ELEMENT_SET_NO": 999, "REV_AT_EPOCH": 222, "BSTAR": -0.019561854, "MEAN_MOTION_DOT": -0.01979526, "MEAN_MOTION_DDOT": 0}, "tle": {"line1": "1 67047U 25294T   25359.91668981 -.01979526  00000+0 -19562-1 0  9992", "line2": "2 67047  42.9999 101.6060 0001493 287.2380 196.0296 15.68141644  2228"}}, "geometry": {"type": "Point", "coordinates": [-68.54824235514835, -11.155130044956506]}}, {"type": "Feature", "properties": {"norad_id": 67048, "name": "STARLINK-35905", "group": "last-30-days", "lat": -12.44835174902326, "lon": -67.06680806496254, "alt_km": 370.3392231761063, "timestamp": "2025-12-26T07:29:17.196146+00:00", "meta": {"OBJECT_NAME": "STARLINK-35905", "OBJECT_ID": "2025-294U", "EPOCH": "2025-12-25T22:00:01.999584", "MEAN_MOTION": 15.68140903, "ECCENTRICITY": 0.0001415, "INCLINATION": 42.9998, "RA_OF_ASC_NODE": 101.601, "ARG_OF_PERICENTER": 286.9681, "MEAN_ANOMALY": 198.2479, "EPHEMERIS_TYPE": 0, "CLASSIFICATION_TYPE": "U", "NORAD_CAT_ID": 67048, "ELEMENT_SET_NO": 999, "REV_AT_EPOCH": 234, "BSTAR": -0.019576607, "MEAN_MOTION_DOT": -0.01980725, "MEAN_MOTION_DDOT": 0}, "tle": {"line1": "1 67048U 25294U   25359.91668981 -.01980725  00000+0 -19577-1 0  9992", "line2": "2 67048  42.9998 101.6010 0001415 286.9681 198.2479 15.68140903  2344"}}, "geometry": {"type": "Point", "coordinates": [-67.06680806496254, -12.44835174902326]}}, {"type": "Feature", "properties": {"norad_id": 67049, "name": "STARLINK-35877", "group": "last-30-days", "lat": -13.876206365365073, "lon": -65.4024485462406, "alt_km": 370.4767605757861, "timestamp": "2025-12-26T07:29:17.196156+00:00", "meta": {"OBJECT_NAME": "STARLINK-35877", "OBJECT_ID": "2025-294V", "EPOCH": "2025-12-25T22:00:01.999584", "MEAN_MOTION": 15.68113903, "ECCENTRICITY": 0.00012943, "INCLINATION": 42.9999, "RA_OF_ASC_NODE": 101.5956, "ARG_OF_PERICENTER": 285.871, "MEAN_ANOMALY": 201.5428, "EPHEMERIS_TYPE": 0, "CLASSIFICATION_TYPE": "U", "NORAD_CAT_ID": 67049, "ELEMENT_SET_NO": 999, "REV_AT_EPOCH": 242, "BSTAR": -0.019534026, "MEAN_MOTION_DOT": -0.01974887, "MEAN_MOTION_DDOT": 0}, "tle": {"line1": "1 67049U 25294V   25359.91668981 -.01974887  00000+0 -19534-1 0  9998", "line2": "2 67049  42.9999 101.5956 0001294 285.8710 201.5428 15.68113903  2421"}}, "geometry": {"type": "Point", "coordinates": [-65.4024485462406, -13.876206365365073]}}]}